IRIDIUM 116             
1 43072U 17083C   25129.95295443  .00000057  00000+0  13366-4 0  9999
2 43072  86.3941 130.5928 0002602  90.2598 269.8896 14.34217861386372
IRIDIUM 130             
1 43073U 17083D   25129.92124118  .00000045  00000+0  89930-5 0  9995
2 43073  86.3949 130.8420 0002609  96.8304 263.3188 14.34217574386313
IRIDIUM 151             
1 43074U 17083E   25129.96563904  .00000042  00000+0  80408-5 0  9998
2 43074  86.3943 130.6361 0002607  90.4558 269.6936 14.34217822386348
IRIDIUM 134             
1 43075U 17083F   25129.51531493  .00000064  00000+0  15881-4 0  9994
2 43075  86.3944 130.8269 0002452  97.4247 262.7227 14.34217821386244
IRIDIUM 137             
1 43076U 17083G   25129.45822905  .00000194  00000+0  62348-4 0  9993
2 43076  86.3947 130.9353 0002931  84.2667 275.8863 14.34219655386300
IRIDIUM 141             
1 43077U 17083H   25129.52165532  .00000034  00000+0  51921-5 0  9997
2 43077  86.3940 130.7624 0002088  89.2558 270.8877 14.34217295386319
IRIDIUM 153             
1 43078U 17083J   25129.96221152  .00000369  00000+0  12474-3 0  9996
2 43078  86.3934  99.0497 0001817  89.3999 270.7405 14.34220329387484
IRIDIUM 131             
1 43079U 17083K   25129.92758248 -.00000064  00000+0 -29826-4 0  9998
2 43079  86.3952 130.7518 0002111  85.0749 275.0688 14.34217016386306
